1 40090U 14040E   15255.93935442 +.00000024 +00000-0 +45562-4 0  9991,2 40090 047.0057 210.7913 0017877 185.8684 174.1993 14.52901133061966
1 40090U 14040E   15256.90210418  .00000017  00000-0  43921-4 0  9997,2 40090  47.0057 206.2829 0017929 190.1963 169.8559 14.52901517 62101
1 40090U 14040E   15258.20869288  .00000026  00000-0  46124-4 0  9995,2 40090  47.0058 200.1643 0017995 196.0441 163.9874 14.52902056 62292
1 40090U 14040E   15259.30897770  .00000024  00000-0  45587-4 0  9994,2 40090  47.0059 195.0118 0018052 200.9616 159.0529 14.52902480 62458
1 40090U 14040E   15259.85912001 +.00000023 +00000-0 +45353-4 0  9999,2 40090 047.0060 192.4354 0018082 203.4270 156.5791 14.52902693062538
1 40090U 14040E   15260.82186885  .00000047  00000-0  51194-4 0  9997,2 40090  47.0061 187.9270 0018120 207.6949 152.2970 14.52903238 62670
1 40090U 14040E   15262.19722360  .00000129  00000-0  70773-4 0  9998,2 40090  47.0062 181.4865 0018182 213.7594 146.2132 14.52904414 62874
1 40090U 14040E   15262.88490072 +.00000129 +00000-0 +70852-4 0  9994,2 40090 047.0062 178.2661 0018215 216.7870 143.1765 14.52904849062970
1 40090U 14040E   15263.22873925  .00000168  00000-0  80041-4 0  9999,2 40090  47.0062 176.6561 0018216 218.2958 141.6633 14.52905260 63028
1 40090U 14040E   15263.91641594 +.00000174 +00000-0 +81652-4 0  9996,2 40090 047.0063 173.4357 0018254 221.3146 138.6357 14.52905802063125
1 40090U 14040E   15265.15423383  .00000167  00000-0  79995-4 0  9997,2 40090  47.0062 167.6393 0018295 226.7530 133.1827 14.52906649 63302
1 40090U 14040E   15266.18574846  .00000162  00000-0  78752-4 0  9997,2 40090  47.0061 162.8088 0018324 231.2627 128.6619 14.52907350 63454
1 40090U 14040E   15267.21726267  .00000181  00000-0  83180-4 0  9990,2 40090  47.0060 157.9784 0018355 235.7945 124.1199 14.52908185 63605
1 40090U 14040E   15267.90493865 +.00000171 +00000-0 +80929-4 0  9998,2 40090 047.0059 154.7579 0018378 238.7723 121.1360 14.52908617063700
1 40090U 14040E   15268.79891717  .00000187  00000-0  84820-4 0  9995,2 40090  47.0058 150.5714 0018397 242.6639 117.2372 14.52909359 63832
1 40090U 14040E   15268.86768473 +.00000205 +00000-0 +88970-4 0  9996,2 40090 047.0058 150.2493 0018395 242.9637 116.9369 14.52909506063849
1 40090U 14040E   15269.83043074  .00000182  00000-0  83452-4 0  9991,2 40090  47.0058 145.7408 0018407 247.1482 112.7458 14.52910027 63981
1 40090U 14040E   15269.89919832 +.00000180 +00000-0 +83008-4 0  9996,2 40090 047.0058 145.4188 0018409 247.4436 112.4500 14.52910054063993
1 40090U 14040E   15271.13701435  .00000172  00000-0  81033-4 0  9991,2 40090  47.0058 139.6221 0018430 252.8391 107.0474 14.52910776 64172
1 40090U 14040E   15271.89345724 +.00000178 +00000-0 +82487-4 0  9999,2 40090 047.0058 136.0796 0018444 256.1103 103.7728 14.52911300064284
1 40090U 14040E   15272.85620264  .00000153  00000-0  76613-4 0  9998,2 40090  47.0058 131.5710 0018448 260.2889  99.5910 14.52911794 64429
1 40090U 14040E   15274.09401788  .00000159  00000-0  78006-4 0  9998,2 40090  47.0057 125.7743 0018454 265.6773  94.2002 14.52912607 64605
1 40090U 14040E   15275.53813509  .00000216  00000-0  91633-4 0  9991,2 40090  47.0057 119.0113 0018451 271.9295  87.9476 14.52913881 64810
1 40090U 14040E   15276.56964711  .00000196  00000-0  86862-4 0  9992,2 40090  47.0056 114.1806 0018445 276.3934  83.4849 14.52914459 64969
1 40090U 14040E   15276.91348434 +.00000191 +00000-0 +85655-4 0  9993,2 40090 047.0056 112.5704 0018436 277.8631 082.0160 14.52914681065013
1 40090U 14040E   15277.87622851  .00000164  00000-0  79117-4 0  9993,2 40090  47.0056 108.0617 0018425 282.0298  77.8521 14.52915204 65151
1 40090U 14040E   15278.97650743  .00000140  00000-0  73332-4 0  9993,2 40090  47.0056 102.9088 0018408 286.8588  73.0276 14.52915817 65314
1 40090U 14040E   15280.55815759  .00000176  00000-0  82057-4 0  9993,2 40090  47.0057  95.5015 0018375 293.7064  66.1891 14.52917129 65540
1 40090U 14040E   15280.90199460 +.00000163 +00000-0 +78853-4 0  9991,2 40090 047.0057 093.8914 0018362 295.2293 064.6687 14.52917282065597
1 40090U 14040E   15281.79597023  .00000175  00000-0  81775-4 0  9996,2 40090  47.0059  89.7048 0018340 299.1092  60.7955 14.52918066 65728
1 40090U 14040E   15281.86473758 +.00000177 +00000-0 +82211-4 0  9990,2 40090 047.0059 089.3828 0018338 299.4244 060.4809 14.52918129065735
1 40090U 14040E   15282.82748070  .00000121  00000-0  68862-4 0  9994,2 40090  47.0060  84.8742 0018307 303.6398  56.2738 14.52918473 65877
1 40090U 14040E   15282.89624802 +.00000128 +00000-0 +70532-4 0  9991,2 40090 047.0060 084.5521 0018306 303.9610 055.9533 14.52918569065884
1 40090U 14040E   15283.85899079  .00000108  00000-0  65732-4 0  9992,2 40090  47.0062  80.0435 0018270 308.1516  51.7721 14.52919118 66024
1 40090U 14040E   15284.89050055  .00000110  00000-0  66238-4 0  9995,2 40090  47.0063  75.2128 0018225 312.6243  47.3103 14.52919848 66178
1 40090U 14040E   15286.47214843  .00000116  00000-0  67661-4 0  9995,2 40090  47.0065  67.8057 0018161 319.5280  40.4252 14.52920893 66401
1 40090U 14040E   15286.88475214 +.00000115 +00000-0 +67479-4 0  9997,2 40090 047.0065 065.8736 0018141 321.3673 038.5912 14.52921154066466
1 40090U 14040E   15287.50365751  .00000166  00000-0  79706-4 0  9993,2 40090  47.0066  62.9752 0018119 324.0709  35.8956 14.52921831 66558
1 40090U 14040E   15287.84749381 +.00000165 +00000-0 +79358-4 0  9997,2 40090 047.0067 061.3651 0018104 325.6096 034.3615 14.52922045066600
1 40090U 14040E   15288.74146820  .00000163  00000-0  78916-4 0  9993,2 40090  47.0068  57.1785 0018060 329.5750  30.4084 14.52922529 66731
1 40090U 14040E   15288.81023535 +.00000187 +00000-0 +84848-4 0  9995,2 40090 047.0068 056.8565 0018057 329.8719 030.1125 14.52922731066746
1 40090U 14040E   15289.77297652  .00000207  00000-0  89532-4 0  9992,2 40090  47.0069  52.3479 0018005 334.1391  25.8591 14.52923426 66885
1 40090U 14040E   15290.80448434  .00000235  00000-0  96185-4 0  9997,2 40090  47.0071  47.5173 0017960 338.6973  21.3161 14.52924310 67034
1 40090U 14040E   15292.45489535  .00000310  00000-0  11437-3 0  9997,2 40090  47.0074  39.7885 0017875 346.0580  13.9808 14.52926121 67275
1 40090U 14040E   15292.72996376 +.00000319 +00000-0 +11632-3 0  9999,2 40090 047.0074 038.5005 0017862 347.3186 012.7246 14.52926395067319
1 40090U 14040E   15293.69270233  .00000369  00000-0  12848-3 0  9998,2 40090  47.0075  33.9920 0017811 351.6299   8.4285 14.52927649 67455
1 40090U 14040E   15294.72420688  .00000421  00000-0  14089-3 0  9992,2 40090  47.0076  29.1615 0017760 356.2609   3.8139 14.52929134 67608
1 40090U 14040E   15296.16831145  .00000528  00000-0  16658-3 0  9998,2 40090  47.0076  22.3988 0017684   2.7501 357.3477 14.52931560 67816
1 40090U 14040E   15297.19981336  .00000579  00000-0  17892-3 0  9997,2 40090  47.0075  17.5682 0017619   7.4264 352.6878 14.52933275 67962
1 40090U 14040E   15298.36884737  .00000552  00000-0  17225-3 0  9995,2 40090  47.0075  12.0935 0017552  12.7378 347.3945 14.52934858 68138
1 40090U 14040E   15299.46911374  .00000451  00000-0  14807-3 0  9996,2 40090  47.0075   6.9408 0017493  17.7719 342.3773 14.52935843 68299
1 40090U 14040E   15299.67541351 +.00000456 +00000-0 +14940-3 0  9996,2 40090 047.0075 005.9748 0017488 018.7169 341.4354 14.52936176068328
1 40090U 14040E   15300.63814548  .00000413  00000-0  13889-3 0  9990,2 40090  47.0075   1.4663 0017438  23.1403 337.0263 14.52937233 68461
1 40090U 14040E   15302.15100843  .00000370  00000-0  12865-3 0  9990,2 40090  47.0075 354.3813 0017359  30.0568 330.1308 14.52938838 68689
1 40090U 14040E   15303.18250482  .00000359  00000-0  12613-3 0  9997,2 40090  47.0074 349.5507 0017313  34.8307 325.3706 14.52939963 68832
1 40090U 14040E   15304.48906579  .00000347  00000-0  12309-3 0  9995,2 40090  47.0074 343.4321 0017255  40.8578 319.3595 14.52941225 69026
1 40090U 14040E   15305.52056057  .00000388  00000-0  13306-3 0  9991,2 40090  47.0073 338.6014 0017211  45.6471 314.5820 14.52942357 69178
1 40090U 14040E   15306.55205448  .00000375  00000-0  12984-3 0  9992,2 40090  47.0071 333.7708 0017170  50.4435 309.7963 14.52943185 69321
1 40090U 14040E   15308.13367685  .00000296  00000-0  11099-3 0  9998,2 40090  47.0070 326.3635 0017116  57.8290 302.4251 14.52944107 69557
1 40090U 14040E   15309.16516873  .00000279  00000-0  10689-3 0  9992,2 40090  47.0069 321.5327 0017090  62.6861 297.5760 14.52944871 69703
1 40090U 14040E   15310.40295808  .00000231  00000-0  95214-4 0  9999,2 40090  47.0068 315.7359 0017071  68.5250 291.7452 14.52945563 69880
1 40090U 14040E   15311.43444805  .00000281  00000-0  10722-3 0  9991,2 40090  47.0068 310.9051 0017060  73.3526 286.9229 14.52946689 70031
1 40090U 14040E   15312.46593695  .00000244  00000-0  98548-4 0  9999,2 40090  47.0068 306.0743 0017050  78.2180 282.0615 14.52947454 70187
1 40090U 14040E   15313.49742489  .00000274  00000-0  10553-3 0  9992,2 40090  47.0068 301.2436 0017044  83.0838 277.1984 14.52948586 70338
1 40090U 14040E   15314.80397502  .00000270  00000-0  10466-3 0  9999,2 40090  47.0068 295.1246 0017038  89.2365 271.0471 14.52949775 70520
1 40090U 14040E   15314.87274064 +.00000327 +00000-0 +11829-3 0  9990,2 40090 047.0068 294.8026 0017038 089.5511 270.7325 14.52950180070535
1 40090U 14040E   15315.90422637  .00000277  00000-0  10622-3 0  9990,2 40090  47.0067 289.9718 0017047  94.3968 265.8863 14.52950909 70684
1 40090U 14040E   15317.00447683  .00000227  00000-0  94389-4 0  9999,2 40090  47.0067 284.8190 0017053  99.6088 260.6723 14.52951694 70848
1 40090U 14040E   15318.03596054  .00000274  00000-0  10558-3 0  9997,2 40090  47.0066 279.9883 0017074 104.4310 255.8470 14.52952948 70991
1 40090U 14040E   15319.13620875  .00000261  00000-0  10239-3 0  9990,2 40090  47.0066 274.8355 0017096 109.6046 250.6684 14.52953953 71152
1 40090U 14040E   15320.16769032  .00000266  00000-0  10367-3 0  9991,2 40090  47.0066 270.0048 0017117 114.4565 245.8106 14.52955020 71302
